COSMOS 2433 (720)       
1 32275U 07052A   21359.25952277 -.00000029  00000+0  00000+0 0  9992
2 32275  66.0800  10.4519 0005232 250.9238 294.0222  2.13104165110255
COSMOS 2432 (719)       
1 32276U 07052B   21359.32618738 -.00000029  00000+0  00000+0 0  9992
2 32276  66.0946  10.5463 0010885 314.9033 229.9408  2.13103407110251
COSMOS 2434 (721)       
1 32393U 07065A   21359.07258935  .00000035  00000+0  00000+0 0  9993
2 32393  64.4164 247.3847 0003330  69.6931 220.7859  2.13103126108950
COSMOS 2436 (723)       
1 32395U 07065C   21359.34462175  .00000035  00000+0  00000+0 0  9998
2 32395  64.4249 247.4297 0016187   1.1153 274.0424  2.13102865108899
COSMOS 2456 (730)       
1 36111U 09070A   21359.26697787  .00000063  00000+0  00000+0 0  9997
2 36111  64.3132 127.0352 0001654 336.9566 270.6691  2.13099093 93624
COSMOS 2457 (733)       
1 36112U 09070B   21359.12851539  .00000062  00000+0  00000+0 0  9999
2 36112  64.2965 126.9203 0006673 152.1853 115.1259  2.13101314 93627
COSMOS 2461 (735)       
1 36401U 10007B   21358.89217979 -.00000030  00000+0  00000+0 0  9995
2 36401  65.9687   9.3265 0019186 359.5802 121.1566  2.13103604 91977
COSMOS 2460 (732)       
1 36402U 10007C   21359.20261367 -.00000029  00000+0  00000+0 0  9990
2 36402  65.9546   9.2705 0002462 254.2510  51.3910  2.13106408 91978
COSMOS 2464 (736)       
1 37139U 10041C   21359.20599388  .00000036  00000+0  00000+0 0  9990
2 37139  64.0156 246.5426 0029654  10.9648 241.3751  2.13100821 88030
COSMOS 2476 (744)       
1 37867U 11064A   21358.93369762  .00000065  00000+0  00000+0 0  9996
2 37867  64.6050 128.3346 0020103 231.1372  24.7812  2.13101756 78966
COSMOS 2477 (745)       
1 37868U 11064B   21359.19470605  .00000065  00000+0  00000+0 0  9995
2 37868  64.6130 128.3887 0017450 231.2239  43.1625  2.13101600 78921
COSMOS 2475 (743)       
1 37869U 11064C   21359.20208412  .00000065  00000+0  00000+0 0  9993
2 37869  64.6197 128.3955 0021073 252.9618 344.9688  2.13101920 78935
COSMOS 2485 (747)       
1 39155U 13019A   21358.85993906  .00000065  00000+0  00000+0 0  9994
2 39155  64.7699 128.7276 0020579 226.7495  17.0381  2.13101779 67438
COSMOS 2492 (754)       
1 39620U 14012A   21359.19825846 -.00000030  00000+0  00000+0 0  9993
2 39620  65.8426   8.9755 0014325 313.9919 223.9533  2.13103210 60395
COSMOS 2500 (755)       
1 40001U 14032A   21359.25930311 -.00000029  00000+0  00000+0 0  9999
2 40001  65.7818   8.8462 0007963 219.8042 224.0860  2.13102209 58613
COSMOS 2501 (702K)      
1 40315U 14075A   21358.86946916  .00000035  00000+0  00000+0 0  9994
2 40315  63.7251 247.2887 0016769 209.7081 102.2924  2.13101272 55002
COSMOS 2514 (751)       
1 41330U 16008A   21358.91966177 -.00000031  00000+0  00000+0 0  9994
2 41330  65.5836   8.5935 0011958 222.0992 144.7437  2.13102774 45776
COSMOS 2516 (753)       
1 41554U 16032A   21359.28813144  .00000034  00000+0  00000+0 0  9997
2 41554  63.9503 247.5015 0012815 218.6844 330.1921  2.13106163 43381
COSMOS 2522 (752)       
1 42939U 17055A   21359.13957838  .00000034  00000+0  00000+0 0  9994
2 42939  64.1846 247.8507 0006666 250.6477  43.8224  2.13102083 33139
COSMOS 2527 (756)       
1 43508U 18053A   21359.18744338  .00000066  00000+0  00000+0 0  9995
2 43508  64.9338 128.6806 0007225 215.0928 148.2130  2.13102488 27433
COSMOS 2529 (757)       
1 43687U 18086A   21358.56667894  .00000035  00000+0  00000+0 0  9997
2 43687  64.3992 248.1401 0009175 274.8525 255.6370  2.13102130 24432
COSMOS 2534 (758)       
1 44299U 19030A   21359.32973277  .00000034  00000+0  00000+0 0  9996
2 44299  64.4705 247.9819 0012286 293.5805 236.9848  2.13101875 20096
COSMOS 2544 (759)       
1 44850U 19088A   21358.99337541  .00000066  00000+0  00000+0 0  9997
2 44850  64.9185 128.5428 0010475 253.5443   4.4744  2.13102269 15857
COSMOS 2545 (760)       
1 45358U 20018A   21359.08343837 -.00000032  00000+0  00000+0 0  9996
2 45358  64.9191   9.3400 0011496 250.4806 286.3709  2.13102643 13819
COSMOS 2547 (705K)      
1 46805U 20075A   21359.40375875  .00000035  00000+0  00000+0 0  9992
2 46805  64.6933 247.3527 0006419 252.5473  21.9174  2.13102815  9066
